ONEWEB-0235             
1 48771U 21045E   24357.60011384 -.00000049  00000+0 -16424-3 0  9997
2 48771  87.9065   7.0182 0001129  81.3945 278.7314 13.15550833173170
ONEWEB-0242             
1 48772U 21045F   24357.59378678 -.00000094  00000+0 -28309-3 0  9993
2 48772  87.9062   7.0067 0001597  85.4071 274.7241 13.15549915173213
ONEWEB-0241             
1 48773U 21045G   24357.58111707  .00000036  00000+0  61121-4 0  9995
2 48773  87.9074   7.0737 0001436 101.4596 258.6695 13.15547428173125
ONEWEB-0243             
1 48774U 21045H   24357.53674315 -.00000052  00000+0 -17289-3 0  9995
2 48774  87.9071   7.0430 0001327  81.0358 279.0923 13.15547736173146
ONEWEB-0222             
1 48775U 21045J   24357.59616268 -.00000117  00000+0 -34574-3 0  9993
2 48775  87.9062   7.0143 0001533  94.3701 265.7604 13.15549631173195
ONEWEB-0244             
1 48776U 21045K   24357.54624511  .00000083  00000+0  18641-3 0  9996
2 48776  87.9058   7.0046 0001660  86.5280 273.6040 13.15550248173759
ONEWEB-0247             
1 48777U 21045L   24357.54308569 -.00000020  00000+0 -87214-4 0  9995
2 48777  87.9068   7.0606 0000918  64.1607 295.9618 13.15549240173199
ONEWEB-0245             
1 48778U 21045M   24357.53832586  .00000035  00000+0  59559-4 0  9991
2 48778  87.9061   7.0392 0001593  98.7276 261.4035 13.15549371173163
